{
  "norad_id": 63704,
  "name": "STARLINK-33937",
  "history": [
    {
      "epoch": "2026-03-28T19:51:20.517120Z",
      "apogee_km": 476.23877722988254,
      "perigee_km": 474.19839620460607,
      "latitude_deg": 3.42218091137218e-05,
      "longitude_deg": 6.302357008578512,
      "height_km": 476.02424626290974,
      "semi_major_axis_km": 6853.3555867172445,
      "eccentricity": 0.00014886,
      "inclination_deg": 53.1596,
      "raan_deg": 130.38,
      "arg_perigee_deg": 84.8219,
      "mean_anomaly_deg": 275.2952,
      "mean_motion_rev_day": 15.30198822
    },
    {
      "epoch": "2026-03-30T06:20:30.743808Z",
      "apogee_km": 476.043669068672,
      "perigee_km": 474.31169938167386,
      "latitude_deg": 3.756633140423824e-05,
      "longitude_deg": -159.08044779579492,
      "height_km": 476.21935504475016,
      "semi_major_axis_km": 6853.314684225173,
      "eccentricity": 0.00012636,
      "inclination_deg": 53.1585,
      "raan_deg": 123.7061,
      "arg_perigee_deg": 99.5536,
      "mean_anomaly_deg": 260.5608,
      "mean_motion_rev_day": 15.30212521
    },
    {
      "epoch": "2026-03-30T12:36:43.779744Z",
      "apogee_km": 476.1769288661317,
      "perigee_km": 474.17987275833457,
      "latitude_deg": 4.252367803546441e-05,
      "longitude_deg": 105.39542823243045,
      "height_km": 475.61287234802296,
      "semi_major_axis_km": 6853.315400812233,
      "eccentricity": 0.0001457,
      "inclination_deg": 53.1579,
      "raan_deg": 122.4938,
      "arg_perigee_deg": 62.3519,
      "mean_anomaly_deg": 297.763,
      "mean_motion_rev_day": 15.30212281
    },
    {
      "epoch": "2026-03-30T18:52:56.476128Z",
      "apogee_km": 476.2204611672287,
      "perigee_km": 474.15980276518803,
      "latitude_deg": 1.2926434507536091e-05,
      "longitude_deg": 9.86869718696543,
      "height_km": 475.89357661387305,
      "semi_major_axis_km": 6853.327131966208,
      "eccentricity": 0.00015034,
      "inclination_deg": 53.1582,
      "raan_deg": 121.2775,
      "arg_perigee_deg": 79.1382,
      "mean_anomaly_deg": 280.9788,
      "mean_motion_rev_day": 15.30208352
    },
    {
      "epoch": "2026-03-31T18:23:44.466432Z",
      "apogee_km": 475.9850757854483,
      "perigee_km": 474.42799613407806,
      "latitude_deg": 1.2298041853650343e-05,
      "longitude_deg": 11.65428026551234,
      "height_km": 476.0967460959174,
      "semi_major_axis_km": 6853.343535959763,
      "eccentricity": 0.0001136,
      "inclination_deg": 53.1568,
      "raan_deg": 116.7287,
      "arg_perigee_deg": 89.4331,
      "mean_anomaly_deg": 270.68,
      "mean_motion_rev_day": 15.30202858
    },
    {
      "epoch": "2026-04-01T08:30:13.070880Z",
      "apogee_km": 475.87978186176224,
      "perigee_km": 474.55023157245887,
      "latitude_deg": 9.854475396433281e-06,
      "longitude_deg": 156.72480126826366,
      "height_km": 476.20089586775657,
      "semi_major_axis_km": 6853.35200671711,
      "eccentricity": 9.7e-05,
      "inclination_deg": 53.1565,
      "raan_deg": 113.9978,
      "arg_perigee_deg": 97.5875,
      "mean_anomaly_deg": 262.5236,
      "mean_motion_rev_day": 15.30200021
    },
    {
      "epoch": "2026-04-02T08:01:00.915168Z",
      "apogee_km": 475.9752828637811,
      "perigee_km": 474.4335551781578,
      "latitude_deg": 3.9334354884320816e-05,
      "longitude_deg": 158.50821655316344,
      "height_km": 476.0793144408313,
      "semi_major_axis_km": 6853.341419020969,
      "eccentricity": 0.00011248,
      "inclination_deg": 53.157,
      "raan_deg": 109.4462,
      "arg_perigee_deg": 88.2864,
      "mean_anomaly_deg": 271.8266,
      "mean_motion_rev_day": 15.30203567
    },
    {
      "epoch": "2026-04-03T07:31:46.783488Z",
      "apogee_km": 476.0364076650867,
      "perigee_km": 473.7063848103653,
      "latitude_deg": -4.988949279524397e-06,
      "longitude_deg": 160.29973199949637,
      "height_km": 475.41154576354666,
      "semi_major_axis_km": 6853.008396237726,
      "eccentricity": 0.00017,
      "inclination_deg": 53.1572,
      "raan_deg": 104.8945,
      "arg_perigee_deg": 72.1456,
      "mean_anomaly_deg": 287.973,
      "mean_motion_rev_day": 15.30315109
    },
    {
      "epoch": "2026-04-04T10:10:43.262112Z",
      "apogee_km": 476.2165305608887,
      "perigee_km": 474.32389362519734,
      "latitude_deg": -4.627617409937918e-05,
      "longitude_deg": 114.31383674501713,
      "height_km": 475.9491608142142,
      "semi_major_axis_km": 6853.407212093043,
      "eccentricity": 0.00013808,
      "inclination_deg": 53.1587,
      "raan_deg": 99.7384,
      "arg_perigee_deg": 76.626,
      "mean_anomaly_deg": 283.4894,
      "mean_motion_rev_day": 15.30181532
    },
    {
      "epoch": "2026-04-05T09:41:31.710336Z",
      "apogee_km": 476.16245865654855,
      "perigee_km": 474.2838155757627,
      "latitude_deg": 1.9924736722992173e-05,
      "longitude_deg": 116.09515379857727,
      "height_km": 476.1076520577206,
      "semi_major_axis_km": 6853.360137116156,
      "eccentricity": 0.00013706,
      "inclination_deg": 53.1595,
      "raan_deg": 95.1872,
      "arg_perigee_deg": 89.1848,
      "mean_anomaly_deg": 270.931,
      "mean_motion_rev_day": 15.30197298
    },
    {
      "epoch": "2026-04-06T06:04:12.825408Z",
      "apogee_km": 475.64357537592696,
      "perigee_km": 474.63792539883616,
      "latitude_deg": 3.2817038818018076e-05,
      "longitude_deg": 165.64385059113982,
      "height_km": 476.0038204998352,
      "semi_major_axis_km": 6853.277750387381,
      "eccentricity": 7.337e-05,
      "inclination_deg": 53.1606,
      "raan_deg": 91.2441,
      "arg_perigee_deg": 85.918,
      "mean_anomaly_deg": 274.1905,
      "mean_motion_rev_day": 15.30224891
    },
    {
      "epoch": "2026-04-07T08:43:07.195872Z",
      "apogee_km": 476.1473763027625,
      "perigee_km": 474.2150147043585,
      "latitude_deg": 3.2977201857035626e-06,
      "longitude_deg": 119.66416969148584,
      "height_km": 475.858653878959,
      "semi_major_axis_km": 6853.31819550356,
      "eccentricity": 0.00014098,
      "inclination_deg": 53.1604,
      "raan_deg": 86.0854,
      "arg_perigee_deg": 76.8062,
      "mean_anomaly_deg": 283.3096,
      "mean_motion_rev_day": 15.30211345
    },
    {
      "epoch": "2026-04-07T16:33:23.328576Z",
      "apogee_km": 476.4502458626821,
      "perigee_km": 473.9528892886565,
      "latitude_deg": 3.782254005558528e-08,
      "longitude_deg": 0.25695909572863507,
      "height_km": 476.18885910737913,
      "semi_major_axis_km": 6853.338567575669,
      "eccentricity": 0.0001822,
      "inclination_deg": 53.1607,
      "raan_deg": 84.5673,
      "arg_perigee_deg": 94.1292,
      "mean_anomaly_deg": 265.9917,
      "mean_motion_rev_day": 15.30204522
    },
    {
      "epoch": "2026-04-08T08:13:55.266528Z",
      "apogee_km": 476.0040416079346,
      "perigee_km": 474.4117354565333,
      "latitude_deg": -2.0228388111438492e-05,
      "longitude_deg": 121.44979574505817,
      "height_km": 475.8999321031787,
      "semi_major_axis_km": 6853.344888532233,
      "eccentricity": 0.00011617,
      "inclination_deg": 53.1608,
      "raan_deg": 81.537,
      "arg_perigee_deg": 74.9801,
      "mean_anomaly_deg": 285.1328,
      "mean_motion_rev_day": 15.30202405
    },
    {
      "epoch": "2026-04-09T15:34:59.288448Z",
      "apogee_km": 476.1918943871133,
      "perigee_km": 474.20716812766113,
      "latitude_deg": -3.085150608485736e-05,
      "longitude_deg": 3.8260812799425157,
      "height_km": 476.042679166061,
      "semi_major_axis_km": 6853.336531257387,
      "eccentricity": 0.0001448,
      "inclination_deg": 53.1599,
      "raan_deg": 75.4676,
      "arg_perigee_deg": 86.8413,
      "mean_anomaly_deg": 273.2753,
      "mean_motion_rev_day": 15.30205204
    },
    {
      "epoch": "2026-04-10T07:15:31.030272Z",
      "apogee_km": 476.1311938146946,
      "perigee_km": 474.19582175129653,
      "latitude_deg": 3.139425289726888e-05,
      "longitude_deg": 125.01729906798438,
      "height_km": 475.8511334994048,
      "semi_major_axis_km": 6853.300507782995,
      "eccentricity": 0.0001412,
      "inclination_deg": 53.1602,
      "raan_deg": 72.4348,
      "arg_perigee_deg": 77.4465,
      "mean_anomaly_deg": 282.6694,
      "mean_motion_rev_day": 15.30217269
    },
    {
      "epoch": "2026-04-11T20:52:47.846208Z",
      "apogee_km": 476.2461478465402,
      "perigee_km": 474.1654729692991,
      "latitude_deg": -5.125006443461445e-05,
      "longitude_deg": -88.12948536785439,
      "height_km": 476.1044130236999,
      "semi_major_axis_km": 6853.342810407919,
      "eccentricity": 0.0001518,
      "inclination_deg": 53.1573,
      "raan_deg": 65.1532,
      "arg_perigee_deg": 90.0635,
      "mean_anomaly_deg": 270.0539,
      "mean_motion_rev_day": 15.30203101
    },
    {
      "epoch": "2026-04-13T04:13:51.770496Z",
      "apogee_km": 476.1899000901203,
      "perigee_km": 474.2165493058201,
      "latitude_deg": -4.285102536651725e-05,
      "longitude_deg": 154.24862556679497,
      "height_km": 476.0575439679846,
      "semi_major_axis_km": 6853.3402246979695,
      "eccentricity": 0.00014397,
      "inclination_deg": 53.1604,
      "raan_deg": 59.0852,
      "arg_perigee_deg": 87.4688,
      "mean_anomaly_deg": 272.6477,
      "mean_motion_rev_day": 15.30203967
    },
    {
      "epoch": "2026-04-14T20:59:14.820576Z",
      "apogee_km": 476.1128809366237,
      "perigee_km": 474.3049682817127,
      "latitude_deg": -6.769536092675584e-05,
      "longitude_deg": -106.65873912469637,
      "height_km": 476.25631880434634,
      "semi_major_axis_km": 6853.345924609168,
      "eccentricity": 0.0001319,
      "inclination_deg": 53.1607,
      "raan_deg": 51.1977,
      "arg_perigee_deg": 99.5053,
      "mean_anomaly_deg": 260.6096,
      "mean_motion_rev_day": 15.30202058
    }
  ]
}